{"type": "FeatureCollection", "features": [ {"type": "Feature", "properties": {"norad_id": 34077, "name": "IRIDIUM 33 DEB", "group": "iridium-33-debris", "lat": 61.59664644281332, "lon": -133.98948471832392, "alt_km": 669.3593433089336, "timestamp": "2025-12-09T23:33:24.239035+00:00", "meta": {"OBJECT_NAME": "IRIDIUM 33 DEB", "OBJECT_ID": "1997-051CL", "EPOCH": "2025-12-09T13:24:46.083744", "MEAN_MOTION": 14.64764722, "ECCENTRICITY": 0.00105225, "INCLINATION": 86.386, "RA_OF_ASC_NODE": 52.9083, "ARG_OF_PERICENTER": 49.5485, "MEAN_ANOMALY": 1.1471, "EPHEMERIS_TYPE": 0, "CLASSIFICATION_TYPE": "U", "NORAD_CAT_ID": 34077, "ELEMENT_SET_NO": 999, "REV_AT_EPOCH": 88286, "BSTAR": 0.002280064, "MEAN_MOTION_DOT": 0.00012191, "MEAN_MOTION_DDOT": 0}, "tle": {"line1": "1 34077U 97051CL  25343.55886671  .00012191  00000+0  22801-2 0  9994", "line2": "2 34077  86.3860  52.9083 0010522  49.5485   1.1471 14.64764722882865"}}, "geometry": {"type": "Point", "coordinates": [-133.98948471832392, 61.59664644281332]}}, {"type": "Feature", "properties": {"norad_id": 34079, "name": "IRIDIUM 33 DEB", "group": "iridium-33-debris", "lat": -74.91895999464265, "lon": -3.6812245930643366, "alt_km": 626.1375624018201, "timestamp": "2025-12-09T23:33:24.239047+00:00", "meta": {"OBJECT_NAME": "IRIDIUM 33 DEB", "OBJECT_ID": "1997-051CN", "EPOCH": "2025-12-09T03:09:08.419680", "MEAN_MOTION": 14.83376544, "ECCENTRICITY": 0.0006064, "INCLINATION": 86.3775, "RA_OF_ASC_NODE": 10.3028, "ARG_OF_PERICENTER": 19.2898, "MEAN_ANOMALY": 48.3139, "EPHEMERIS_TYPE": 0, "CLASSIFICATION_TYPE": "U", "NORAD_CAT_ID": 34079, "ELEMENT_SET_NO": 999, "REV_AT_EPOCH": 88924, "BSTAR": 0.0018399055, "MEAN_MOTION_DOT": 0.0001513, "MEAN_MOTION_DDOT": 0}, "tle": {"line1": "1 34079U 97051CN  25343.13134745  .00015130  00000+0  18399-2 0  9991", "line2": "2 34079  86.3775  10.3028 0006064  19.2898  48.3139 14.83376544889242"}}, "geometry": {"type": "Point", "coordinates": [-3.6812245930643366, -74.91895999464265]}}, {"type": "Feature", "properties": {"norad_id": 34088, "name": "IRIDIUM 33 DEB", "group": "iridium-33-debris", "lat": -61.16746964826585, "lon": 25.395619611536887, "alt_km": 603.0104850749394, "timestamp": "2025-12-09T23:33:24.239058+00:00", "meta": {"OBJECT_NAME": "IRIDIUM 33 DEB", "OBJECT_ID": "1997-051CX", "EPOCH": "2025-12-09T11:14:20.281920", "MEAN_MOTION": 14.91127801, "ECCENTRICITY": 0.00054768, "INCLINATION": 86.3845, "RA_OF_ASC_NODE": 32.2268, "ARG_OF_PERICENTER": 188.4748, "MEAN_ANOMALY": 236.8538, "EPHEMERIS_TYPE": 0, "CLASSIFICATION_TYPE": "U", "NORAD_CAT_ID": 34088, "ELEMENT_SET_NO": 999, "REV_AT_EPOCH": 88693, "BSTAR": 0.0032694567, "MEAN_MOTION_DOT": 0.0003256, "MEAN_MOTION_DDOT": 0}, "tle": {"line1": "1 34088U 97051CX  25343.46829030  .00032560  00000+0  32695-2 0  9996", "line2": "2 34088  86.3845  32.2268 0005476 188.4748 236.8538 14.91127801886937"}}, "geometry": {"type": "Point", "coordinates": [25.395619611536887, -61.16746964826585]}}, {"type": "Feature", "properties": {"norad_id": 34091, "name": "IRIDIUM 33 DEB", "group": "iridium-33-debris", "lat": -39.15070466515639, "lon": -108.917269219736, "alt_km": 628.8253179158055, "timestamp": "2025-12-09T23:33:24.239068+00:00", "meta": {"OBJECT_NAME": "IRIDIUM 33 DEB", "OBJECT_ID": "1997-051DA", "EPOCH": "2025-12-09T06:21:21.737088", "MEAN_MOTION": 14.81387493, "ECCENTRICITY": 0.0033239, "INCLINATION": 86.3413, "RA_OF_ASC_NODE": 68.4246, "ARG_OF_PERICENTER": 305.7588, "MEAN_ANOMALY": 54.0544, "EPHEMERIS_TYPE": 0, "CLASSIFICATION_TYPE": "U", "NORAD_CAT_ID": 34091, "ELEMENT_SET_NO": 999, "REV_AT_EPOCH": 87815, "BSTAR": 0.0066531, "MEAN_MOTION_DOT": 0.00052856, "MEAN_MOTION_DDOT": 0}, "tle": {"line1": "1 34091U 97051DA  25343.26483492  .00052856  00000+0  66531-2 0  9992", "line2": "2 34091  86.3413  68.4246 0033239 305.7588  54.0544 14.81387493878159"}}, "geometry": {"type": "Point", "coordinates": [-108.917269219736, -39.15070466515639]}}, {"type": "Feature", "properties": {"norad_id": 34097, "name": "IRIDIUM 33 DEB", "group": "iridium-33-debris", "lat": -32.47206851840071, "lon": -174.9510334143196, "alt_km": 837.3390791883448, "timestamp": "2025-12-09T23:33:24.239079+00:00", "meta": {"OBJECT_NAME": "IRIDIUM 33 DEB", "OBJECT_ID": "1997-051DG", "EPOCH": "2025-12-09T12:31:33.070656", "MEAN_MOTION": 14.34736702, "ECCENTRICITY": 0.00829379, "INCLINATION": 86.2001, "RA_OF_ASC_NODE": 2.8277, "ARG_OF_PERICENTER": 12.6718, "MEAN_ANOMALY": 347.6535, "EPHEMERIS_TYPE": 0, "CLASSIFICATION_TYPE": "U", "NORAD_CAT_ID": 34097, "ELEMENT_SET_NO": 999, "REV_AT_EPOCH": 87073, "BSTAR": 0.0020674392, "MEAN_MOTION_DOT": 6.107e-05, "MEAN_MOTION_DDOT": 0}, "tle": {"line1": "1 34097U 97051DG  25343.52191054  .00006107  00000+0  20674-2 0  9993", "line2": "2 34097  86.2001   2.8277 0082937  12.6718 347.6535 14.34736702870737"}}, "geometry": {"type": "Point", "coordinates": [-174.9510334143196, -32.47206851840071]}}, {"type": "Feature", "properties": {"norad_id": 34145, "name": "IRIDIUM 33 DEB", "group": "iridium-33-debris", "lat": 46.8347831304243, "lon": -22.194572681824056, "alt_km": 724.3712944030485, "timestamp": "2025-12-09T23:33:24.239090+00:00", "meta": {"OBJECT_NAME": "IRIDIUM 33 DEB", "OBJECT_ID": "1997-051DY", "EPOCH": "2025-12-09T10:01:09.026976", "MEAN_MOTION": 14.42251473, "ECCENTRICITY": 0.00556161, "INCLINATION": 86.2119, "RA_OF_ASC_NODE": 334.0058, "ARG_OF_PERICENTER": 104.3525, "MEAN_ANOMALY": 256.3858, "EPHEMERIS_TYPE": 0, "CLASSIFICATION_TYPE": "U", "NORAD_CAT_ID": 34145, "ELEMENT_SET_NO": 999, "REV_AT_EPOCH": 87590, "BSTAR": 0.0016534219, "MEAN_MOTION_DOT": 5.573e-05, "MEAN_MOTION_DDOT": 0}, "tle": {"line1": "1 34145U 97051DY  25343.41746559  .00005573  00000+0  16534-2 0  9997", "line2": "2 34145  86.2119 334.0058 0055616 104.3525 256.3858 14.42251473875901"}}, "geometry": {"type": "Point", "coordinates": [-22.194572681824056, 46.8347831304243]}}, {"type": "Feature", "properties": {"norad_id": 34146, "name": "IRIDIUM 33 DEB", "group": "iridium-33-debris", "lat": -21.593593486988137, "lon": -10.455311208274018, "alt_km": 739.4436168992615, "timestamp": "2025-12-09T23:33:24.239101+00:00", "meta": {"OBJECT_NAME": "IRIDIUM 33 DEB", "OBJECT_ID": "1997-051DZ", "EPOCH": "2025-12-09T11:08:14.290656", "MEAN_MOTION": 14.49013185, "ECCENTRICITY": 0.00252302, "INCLINATION": 86.2836, "RA_OF_ASC_NODE": 351.2473, "ARG_OF_PERICENTER": 233.2613, "MEAN_ANOMALY": 287.271, "EPHEMERIS_TYPE": 0, "CLASSIFICATION_TYPE": "U", "NORAD_CAT_ID": 34146, "ELEMENT_SET_NO": 999, "REV_AT_EPOCH": 88059, "BSTAR": 0.001459577, "MEAN_MOTION_DOT": 5.577e-05, "MEAN_MOTION_DDOT": 0}, "tle": {"line1": "1 34146U 97051DZ  25343.46405429  .00005577  00000+0  14596-2 0  9991", "line2": "2 34146  86.2836 351.2473 0025230 233.2613 287.2710 14.49013185880593"}}, "geometry": {"type": "Point", "coordinates": [-10.455311208274018, -21.593593486988137]}}, {"type": "Feature", "properties": {"norad_id": 34159, "name": "IRIDIUM 33 DEB", "group": "iridium-33-debris", "lat": 22.441167173488786, "lon": -132.09275357368622, "alt_km": 777.5339941032698, "timestamp": "2025-12-09T23:33:24.239111+00:00", "meta": {"OBJECT_NAME": "IRIDIUM 33 DEB", "OBJECT_ID": "1997-051EN", "EPOCH": "2025-12-09T14:28:40.150272", "MEAN_MOTION": 14.38481975, "ECCENTRICITY": 0.00260224, "INCLINATION": 86.3511, "RA_OF_ASC_NODE": 49.5787, "ARG_OF_PERICENTER": 298.8838, "MEAN_ANOMALY": 60.975, "EPHEMERIS_TYPE": 0, "CLASSIFICATION_TYPE": "U", "NORAD_CAT_ID": 34159, "ELEMENT_SET_NO": 999, "REV_AT_EPOCH": 87914, "BSTAR": 0.00067158444, "MEAN_MOTION_DOT": 2.077e-05, "MEAN_MOTION_DDOT": 0}, "tle": {"line1": "1 34159U 97051EN  25343.60324248  .00002077  00000+0  67158-3 0  9995", "line2": "2 34159  86.3511  49.5787 0026022 298.8838  60.9750 14.38481975879142"}}, "geometry": {"type": "Point", "coordinates": [-132.09275357368622, 22.441167173488786]}}, {"type": "Feature", "properties": {"norad_id": 34350, "name": "IRIDIUM 33 DEB", "group": "iridium-33-debris", "lat": 61.80894196001263, "lon": 177.12245605954956, "alt_km": 720.404096625286, "timestamp": "2025-12-09T23:33:24.239122+00:00", "meta": {"OBJECT_NAME": "IRIDIUM 33 DEB", "OBJECT_ID": "1997-051ES", "EPOCH": "2025-12-09T13:47:13.249824", "MEAN_MOTION": 14.45376656, "ECCENTRICITY": 0.00225308, "INCLINATION": 86.3277, "RA_OF_ASC_NODE": 4.1808, "ARG_OF_PERICENTER": 145.0472, "MEAN_ANOMALY": 16.1955, "EPHEMERIS_TYPE": 0, "CLASSIFICATION_TYPE": "U", "NORAD_CAT_ID": 34350, "ELEMENT_SET_NO": 999, "REV_AT_EPOCH": 88247, "BSTAR": 0.00053159265, "MEAN_MOTION_DOT": 1.894e-05, "MEAN_MOTION_DDOT": 0}, "tle": {"line1": "1 34350U 97051ES  25343.57445891  .00001894  00000+0  53159-3 0  9994", "line2": "2 34350  86.3277   4.1808 0022530 145.0472  16.1955 14.45376656882479"}}, "geometry": {"type": "Point", "coordinates": [177.12245605954956, 61.80894196001263]}}, {"type": "Feature", "properties": {"norad_id": 34366, "name": "IRIDIUM 33 DEB", "group": "iridium-33-debris", "lat": -0.10031371981628981, "lon": 50.50634459788477, "alt_km": 729.0545733891222, "timestamp": "2025-12-09T23:33:24.239133+00:00", "meta": {"OBJECT_NAME": "IRIDIUM 33 DEB", "OBJECT_ID": "1997-051FJ", "EPOCH": "2025-12-09T15:59:46.412160", "MEAN_MOTION": 14.54015219, "ECCENTRICITY": 0.00222509, "INCLINATION": 86.3691, "RA_OF_ASC_NODE": 50.6497, "ARG_OF_PERICENTER": 149.3626, "MEAN_ANOMALY": 2.8862, "EPHEMERIS_TYPE": 0, "CLASSIFICATION_TYPE": "U", "NORAD_CAT_ID": 34366, "ELEMENT_SET_NO": 999, "REV_AT_EPOCH": 88137, "BSTAR": 0.0017418362, "MEAN_MOTION_DOT": 7.389e-05, "MEAN_MOTION_DDOT": 0}, "tle": {"line1": "1 34366U 97051FJ  25343.66650940  .00007389  00000+0  17418-2 0  9996", "line2": "2 34366  86.3691  50.6497 0022250 149.3626   2.8862 14.54015219881375"}}, "geometry": {"type": "Point", "coordinates": [50.50634459788477, -0.10031371981628981]}}]}